<!DOCTYPE html PUBLIC "-//W3C//DTD XHTML 1.0 Transitional//EN" "http://www.w3.org/TR/xhtml1/DTD/xhtml1-transitional.dtd">
<html xmlns="http://www.w3.org/1999/xhtml" xml:lang="en" lang="en" dir="ltr">
 <head> 
  <meta http-equiv="Content-Type" content="text/html; charset=UTF-8"> 
  <!-- headlinks removed --> 
  <link rel="shortcut icon" href="../../../../misc/favicon.ico"> 
  <title>1127 Mimi - Wikipedia, the free encyclopedia</title> 
  <style type="text/css">/*<![CDATA[*/ @import "../../../../skins/offline/main.css"; /*]]>*/</style> 
  <link rel="stylesheet" type="text/css" media="print" href="../../../../skins/common/commonPrint.css"> 
  <!--[if lt IE 5.5000]><style type="text/css">@import "../../../../skins/monobook/IE50Fixes.css";</style><![endif]--> 
  <!--[if IE 5.5000]><style type="text/css">@import "../../../../skins/monobook/IE55Fixes.css";</style><![endif]--> 
  <!--[if IE 6]><style type="text/css">@import "../../../../skins/monobook/IE60Fixes.css";</style><![endif]--> 
  <!--[if IE]><script type="text/javascript" src="../../../../skins/common/IEFixes.js"></script>
    <meta http-equiv="imagetoolbar" content="no" /><![endif]--> 
  <script type="text/javascript" src="../../../../skins/common/wikibits.js"></script> 
  <script type="text/javascript" src="../../../../skins/offline/md5.js"></script> 
  <script type="text/javascript" src="../../../../skins/offline/utf8.js"></script> 
  <script type="text/javascript" src="../../../../skins/offline/lookup.js"></script> 
  <script type="text/javascript" src="../../../../raw/gen.js"></script> 
  <style type="text/css">/*<![CDATA[*/
@import "../../../../raw/MediaWiki%7ECommon.css";
@import "../../../../raw/MediaWiki%7EMonobook.css";
@import "../../../../raw/gen.css";
/*]]>*/</style> 
 </head> 
 <body class="ns-0"> 
  <div id="globalWrapper"> 
   <div id="column-content"> 
    <div id="content"> 
     <a name="top" id="contentTop"></a> 
     <h1 class="firstHeading">1127 Mimi</h1> 
     <div id="bodyContent"> 
      <h3 id="siteSub">From Wikipedia, the free encyclopedia</h3> 
      <div id="contentSub"></div> 
      <!-- start content --> 
      <table class="infobox vcard" style="width:20em; text-align:left; font-size:90%;" cellspacing="2"> 
       <caption>
        <span class="fn org" style="font-size:120%;"><b>1127 Mimi <sup id="cite_ref-a_0-0" class="reference"><a href="9194fa686fa5c9430cb15d816c706f5c.html" title="">[1]</a></sup></b></span>
       </caption> 
       <tbody>
        <tr> 
         <th colspan="2" style="padding-top:0.75em; text-align:center;"> 
          <div style="background:#FFFFC0">
           Discovery&nbsp;and designation
          </div> </th> 
        </tr> 
        <tr> 
         <th style="line-height:1.1em;">Discovered by</th> 
         <td style="line-height:1.2em;">Arend, S.</td> 
        </tr> 
        <tr> 
         <th style="line-height:1.1em;">Discovery date</th> 
         <td style="line-height:1.2em;">1929-Jan-13</td> 
        </tr> 
        <tr> 
         <th colspan="2" style="text-align:center; padding-top:0.75em;"> 
          <div style="background:#FFFFC0">
           <a href="847abe78878bbe858f38cf5dba0fafa2.html" title="Orbit">Orbital characteristics</a>
          </div> </th> 
        </tr> 
        <tr> 
         <td colspan="2" style="text-align:center;"><small><a href="fc157f749a8be29d3be1241357f6006d.html" title="Epoch (astronomy)">Epoch</a> Orbital Elements at Epoch 2454400.5 (2007-Oct-27.0) TDB</small></td> 
        </tr> 
        <tr> 
         <th style="line-height:1.1em;"><a href="fab7e927d6a5a5a5a55dafa97396daab.html" title="Apsis">Aphelion</a></th> 
         <td style="line-height:1.2em;">3.2808805 <a href="bc1a7d11a78db83f35c31a0db14b01bb.html" class="mw-redirect" title="Astronomical units">AU</a></td> 
        </tr> 
        <tr> 
         <th style="line-height:1.1em;"><a href="0e25c1abc8d6ce5c35bee40741965623.html" title="Apsis">Perihelion</a></th> 
         <td style="line-height:1.2em;">1.9087085 AU</td> 
        </tr> 
        <tr> 
         <th style="line-height:1.1em;"><a href="50b19115c37d994ed042aa2d234e5e1c.html" title="Semi-major axis">Semi-major axis</a></th> 
         <td style="line-height:1.2em;">2.5947945 AU</td> 
        </tr> 
        <tr> 
         <th style="line-height:1.1em;"><a href="335e37636b204134932efadfc7cf1f24.html" title="Orbital eccentricity">Eccentricity</a></th> 
         <td style="line-height:1.2em;">0.2644086</td> 
        </tr> 
        <tr> 
         <th style="line-height:1.1em;"><a href="ebcf8f37f8b3f38e5aa05dd7be0137f4.html" title="Orbital period">Orbital period</a></th> 
         <td style="line-height:1.2em;">1526.6970977 days<br> 4.18 years</td> 
        </tr> 
        <tr> 
         <th style="line-height:1.1em;"><a href="54402eca6566d21344af80d2b379b1e3.html" title="Mean anomaly">Mean anomaly</a></th> 
         <td style="line-height:1.2em;">353.11915 °</td> 
        </tr> 
        <tr> 
         <th style="line-height:1.1em;"><a href="7c07fafcc3ce65c5096cf92510eeef84.html" title="Inclination">Inclination</a></th> 
         <td style="line-height:1.2em;">14.7523 °</td> 
        </tr> 
        <tr> 
         <th style="line-height:1.1em;"><a href="bd495ccbca89497607b6f7013ea50562.html" title="Longitude of the ascending node">Longitude&nbsp;of ascending&nbsp;node</a></th> 
         <td style="line-height:1.2em; vertical-align:middle;">128.71629 °</td> 
        </tr> 
        <tr> 
         <th style="line-height:1.1em;"><a href="ac3286c8515665530fbbc6c7d876cbc2.html" title="Argument of periapsis">Argument of perihelion</a></th> 
         <td style="line-height:1.2em; vertical-align:middle;">281.89636 °</td> 
        </tr> 
        <tr> 
         <th colspan="2" style="text-align:center; padding-top:0.75em;"> 
          <div style="background:#FFFFC0">
           <a href="4597cad54e163b83b2d2edea1848deb4.html" title="Standard asteroid physical characteristics">Physical characteristics</a>
          </div> </th> 
        </tr> 
        <tr> 
         <th style="line-height:1.1em;">Dimensions</th> 
         <td style="line-height:1.2em;">diameter 46.84</td> 
        </tr> 
        <tr> 
         <th style="line-height:1.1em;"><a href="bb49c71e4c153dd046b07895c9925835.html" title="Rotation period">Rotation period</a></th> 
         <td style="line-height:1.2em;">12.749 h</td> 
        </tr> 
        <tr> 
         <th style="line-height:1.1em;"><a href="4da2e28c0989f4bdc6cbc2be9cbc9da4.html" title="Geometric albedo">Geometric albedo</a></th> 
         <td style="line-height:1.2em;">0.0336 &nbsp;</td> 
        </tr> 
        <tr> 
         <th style="line-height:1.1em;"><a href="12e8c5b6e9f0003f9c8870336a38558e.html" title="Absolute magnitude">Absolute magnitude</a></th> 
         <td style="line-height:1.2em; vertical-align:middle;">10.95 mag</td> 
        </tr> 
       </tbody>
      </table> 
      <p><b>1127 Mimi</b> is a <a href="1071deda5d83c1349cf0941a765b541e.html" class="mw-redirect" title="Main belt asteroid">main belt asteroid</a> orbiting the <a href="7ffde20c44f5c4e4ca902c3457a91d02.html" title="Sun">Sun</a>. Approximately 46 kilometers in diameter, it makes a revolution around the Sun once every 4 years. It completes one rotation once every 13 hours. It was discovered by <a href="c1867622de512ee141050d983c10d9dc.html" title="Sylvain Julien Victor Arend">Sylvain Julien Victor Arend</a> on <a href="8ea40c70d9a6a4cfb2442021bd40f5d3.html" title="January 13">January 13</a>, <a href="b963c7bd6b407e7835155339683da3fa.html" title="1929">1929</a>.<sup id="cite_ref-a_0-1" class="reference"><a href="9bbeebce68ed1cc24874caec63d55191.html" title="">[1]</a></sup> It was named for the wife of astronomer <a href="3c5003c4c49073581040f2daedd41307.html" title="Eugène Joseph Delporte">Eugène Joseph Delporte</a>. Through an error, the names intended for 1127 Mimi and <a href="e8752ea047f85fe6116b3c00cd13ff72.html" title="1145 Robelmonte">1145 Robelmonte</a> had been switched, and each name had been proposed by the discoverer of the other asteroid. Its provisional designation was 1929 AJ.<sup id="cite_ref-1" class="reference"><a href="930b78e748227eaa846df87804630fe5.html" title="">[2]</a></sup></p> 
      <p><a name="References" id="References"></a></p> 
      <h2><span class="editsection">[<a href="29116b03b47376619135f89d657db0e3.html" title="Edit section: References">edit</a>]</span> <span class="mw-headline">References</span></h2> 
      <ol class="references"> 
       <li id="cite_note-a-0">^ <a href="595bbf88e87963911f3ee3f90ada4394.html" title=""><sup><i><b>a</b></i></sup></a> <a href="621c4f388de924a38e47dd1383790eea.html" title=""><sup><i><b>b</b></i></sup></a> <a href="edb4b1144a5325127082e33356fd56a7.html" class="external text" title="http://ssd.jpl.nasa.gov/sbdb.cgi?sstr=1127" rel="nofollow">"JPL Small-Body Database Browser"</a>. Retrieved on <a href="1dd933b4aa6c3920caf6527021e9c667.html" title="October 17">October 17</a>, <a href="9f89363ee1213f80911e664e2e157f07.html" title="2007">2007</a>.</li> 
       <li id="cite_note-1"><b><a href="bd1b4120b715b430793c3723c386eccf.html" title="">^</a></b> <cite class="book" style="font-style:normal" id="Reference-Schmadel-2003">Schmadel, Lutz D. (2003). <i>Dictionary of Minor Planet Names</i>. Springer. <a href="0a6dc7c91e755c78aac90c40e6d7e7ae.html" class="internal">ISBN 3540002383</a>.</cite><span class="Z3988" title="ctx_ver=Z39.88-2004&amp;rft_val_fmt=info%3Aofi%2Ffmt%3Akev%3Amtx%3Abook&amp;rft.genre=book&amp;rft.btitle=Dictionary+of+Minor+Planet+Names&amp;rft.aulast=Schmadel&amp;rft.aufirst=Lutz+D.&amp;rft.date=2003&amp;rft.pub=Springer&amp;rft.isbn=3540002383"><span style="display: none;">&nbsp;</span></span></li> 
      </ol> 
      <table class="navbox" cellspacing="0" style=";"> 
       <tbody>
        <tr> 
         <td style="padding:2px;"> 
          <table cellspacing="0" class="nowraplinks collapsible show" style="width:100%;background:transparent;color:inherit;;"> 
           <tbody>
